TRANSIT 16 [?]          
1 02807U 67048A   15353.90080553  .00000079  00000-0  10855-3 0  9997
2 02807  89.6443 124.8279 0019662 210.3400 265.6159 13.50096837391256
TRANSIT 17 [?]          
1 02965U 67092A   15354.90870435  .00000121  00000-0  16409-3 0  9997
2 02965  89.2445 301.4546 0048737  16.3711  41.1006 13.52822911378539
TRANSIT 18 [?]          
1 03133U 68012A   15354.84265008  .00000098  00000-0  13668-3 0  9992
2 03133  89.9598 277.4871 0073742 285.9428 133.9121 13.50925191353510
NNSS 19 [?]             
1 04507U 70067A   15354.80433020  .00000144  00000-0  18821-3 0  9996
2 04507  89.8282 272.1302 0174092  46.4401  10.8671 13.50587096230534
NNSS O-20 [?]           
1 06909U 73081A   15354.92584037  .00000104  00000-0  97073-4 0  9994
2 06909  89.8372 322.1498 0156828 194.1023 165.5737 13.70358995304609
TRANSAT [?]             
1 10457U 77106A   15353.97187715  .00000073  00000-0  10213-3 0  9990
2 10457  89.7637 184.6882 0023547 261.7634 211.4390 13.48530516876047
NOVA I [?]              
1 12458U 81044A   15353.94081081  .00000049  00000-0  94472-4 0  9998
2 12458  89.9785 123.1660 0015649  76.5553  37.7860 13.22929634669770
NOVA 3 [?]              
1 15362U 84110A   15354.22930595  .00000052  00000-0  10481-3 0  9998
2 15362  90.0355  52.7988 0029933 297.0864 124.1678 13.22700123505305
OSCAR 30 [?]            
1 15935U 85066A   15354.70789867  .00000094  00000-0  15919-3 0  9999
2 15935  90.1195  43.5778 0166978 284.2686 189.3714 13.35571239478008
OSCAR 24 [?]            
1 15936U 85066B   15355.21860087  .00000086  00000-0  14313-3 0  9999
2 15936  90.1066  38.0277 0167830 286.9074 138.2668 13.35455195480171
POLAR BEAR [?]          
1 17070U 86088A   15354.58422199  .00000093  00000-0  85805-4 0  9995
2 17070  89.5425 353.2724 0037248 310.1000 184.8406 13.74682161459205
OSCAR 27 [?]            
1 18361U 87080A   15353.88769147  .00000066  00000-0  97570-4 0  9993
2 18361  90.3434 317.1277 0103429 220.4115 138.9317 13.44385502385908
OSCAR 29 [?]            
1 18362U 87080B   15353.96127025  .00000066  00000-0  97473-4 0  9998
2 18362  90.3438 317.3419 0104796 235.9007 184.3771 13.43980606385344
OSCAR 23 [?]            
1 19070U 88033A   15354.80560587  .00000025  00000-0  37512-4 0  9995
2 19070  90.3539 254.5684 0188688 233.4632 192.1080 13.27371373339210
OSCAR 32 [?]            
1 19071U 88033B   15355.21809025  .00000021  00000-0  29068-4 0  9998
2 19071  90.3536 254.6608 0186966 222.0423 297.9515 13.27560190339476
NOVA 11 [?]             
1 19223U 88052A   15355.19907227  .00000017  00000-0  19041-4 0  9993
2 19223  89.9712  88.8487 0029557 338.3528  80.5807 13.22617946327953
OSCAR 25 [?]            
1 19419U 88074A   15354.51183907  .00000075  00000-0  11364-3 0  9993
2 19419  89.9752  19.9951 0095890 199.9926 331.0038 13.42120586337661
OSCAR 31 [?]            
1 19420U 88074B   15354.54819321  .00000074  00000-0  11221-3 0  9995
2 19420  89.9757  19.9834 0094246 194.0694 331.4747 13.42133383337772
